{"fetched_at":"2026-07-13T07:47:58.237Z","source":"https://celestrak.org/NORAD/elements/gp.php?GROUP=qianfan&FORMAT=JSON","constellation":"qianfan","records":[{"OBJECT_NAME":"QIANFAN-113","OBJECT_ID":"2026-075E","EPOCH":"2026-07-12T18:32:59.868096","CLASSIFICATION_TYPE":"U","MEAN_MOTION":13.51018118,"ECCENTRICITY":0.0001943,"INCLINATION":88.9917,"RA_OF_ASC_NODE":318.384,"ARG_OF_PERICENTER":105.8602,"MEAN_ANOMALY":254.2764,"EPHEMERIS_TYPE":0,"NORAD_CAT_ID":68640,"ELEMENT_SET_NO":999,"REV_AT_EPOCH":1326,"BSTAR":0.000066927,"MEAN_MOTION_DOT":5.5e-7,"MEAN_MOTION_DDOT":0},{"OBJECT_NAME":"QIANFAN-114","OBJECT_ID":"2026-075F","EPOCH":"2026-07-12T18:44:47.560128","CLASSIFICATION_TYPE":"U","MEAN_MOTION":13.510169,"ECCENTRICITY":0.0002034,"INCLINATION":88.9912,"RA_OF_ASC_NODE":318.4011,"ARG_OF_PERICENTER":103.209,"MEAN_ANOMALY":256.9288,"EPHEMERIS_TYPE":0,"NORAD_CAT_ID":68641,"ELEMENT_SET_NO":999,"REV_AT_EPOCH":1325,"BSTAR":0.000094717,"MEAN_MOTION_DOT":7.3e-7,"MEAN_MOTION_DDOT":0},{"OBJECT_NAME":"QIANFAN-115","OBJECT_ID":"2026-075G","EPOCH":"2026-07-12T12:19:32.530080","CLASSIFICATION_TYPE":"U","MEAN_MOTION":13.510221,"ECCENTRICITY":0.00021521,"INCLINATION":88.9912,"RA_OF_ASC_NODE":318.4356,"ARG_OF_PERICENTER":107.1052,"MEAN_ANOMALY":253.0335,"EPHEMERIS_TYPE":0,"NORAD_CAT_ID":68642,"ELEMENT_SET_NO":999,"REV_AT_EPOCH":1321,"BSTAR":0.000058479728,"MEAN_MOTION_DOT":5e-7,"MEAN_MOTION_DDOT":0},{"OBJECT_NAME":"QIANFAN-116","OBJECT_ID":"2026-075H","EPOCH":"2026-07-12T19:08:22.502688","CLASSIFICATION_TYPE":"U","MEAN_MOTION":13.51014211,"ECCENTRICITY":0.0001892,"INCLINATION":88.9905,"RA_OF_ASC_NODE":318.3648,"ARG_OF_PERICENTER":112.9464,"MEAN_ANOMALY":247.1887,"EPHEMERIS_TYPE":0,"NORAD_CAT_ID":68643,"ELEMENT_SET_NO":999,"REV_AT_EPOCH":1326,"BSTAR":0.000070835,"MEAN_MOTION_DOT":5.8e-7,"MEAN_MOTION_DDOT":0},{"OBJECT_NAME":"QIANFAN-117","OBJECT_ID":"2026-075J","EPOCH":"2026-07-12T18:50:36.706848","CLASSIFICATION_TYPE":"U","MEAN_MOTION":13.51024151,"ECCENTRICITY":0.0002076,"INCLINATION":88.991,"RA_OF_ASC_NODE":318.383,"ARG_OF_PERICENTER":110.4372,"MEAN_ANOMALY":249.7002,"EPHEMERIS_TYPE":0,"NORAD_CAT_ID":68644,"ELEMENT_SET_NO":999,"REV_AT_EPOCH":1326,"BSTAR":0.000099846,"MEAN_MOTION_DOT":7.7e-7,"MEAN_MOTION_DDOT":0},{"OBJECT_NAME":"QIANFAN-118","OBJECT_ID":"2026-075K","EPOCH":"2026-07-10T23:06:35.942400","CLASSIFICATION_TYPE":"U","MEAN_MOTION":13.48686368,"ECCENTRICITY":0.00501178,"INCLINATION":88.9921,"RA_OF_ASC_NODE":318.5955,"ARG_OF_PERICENTER":0.0535,"MEAN_ANOMALY":0.0611,"EPHEMERIS_TYPE":0,"NORAD_CAT_ID":68645,"ELEMENT_SET_NO":999,"REV_AT_EPOCH":1301,"BSTAR":-3.5020889,"MEAN_MOTION_DOT":-0.02165439,"MEAN_MOTION_DDOT":0},{"OBJECT_NAME":"QIANFAN-119","OBJECT_ID":"2026-075L","EPOCH":"2026-07-12T13:42:35.122176","CLASSIFICATION_TYPE":"U","MEAN_MOTION":13.51020266,"ECCENTRICITY":0.00021697,"INCLINATION":88.9915,"RA_OF_ASC_NODE":318.4096,"ARG_OF_PERICENTER":112.6724,"MEAN_ANOMALY":247.4657,"EPHEMERIS_TYPE":0,"NORAD_CAT_ID":68646,"ELEMENT_SET_NO":999,"REV_AT_EPOCH":1323,"BSTAR":0.000077321995,"MEAN_MOTION_DOT":6.2e-7,"MEAN_MOTION_DDOT":0},{"OBJECT_NAME":"QIANFAN-120","OBJECT_ID":"2026-075M","EPOCH":"2026-07-12T14:00:31.420800","CLASSIFICATION_TYPE":"U","MEAN_MOTION":13.51020677,"ECCENTRICITY":0.00023186,"INCLINATION":88.9916,"RA_OF_ASC_NODE":318.3938,"ARG_OF_PERICENTER":113.4224,"MEAN_ANOMALY":246.7171,"EPHEMERIS_TYPE":0,"NORAD_CAT_ID":68647,"ELEMENT_SET_NO":999,"REV_AT_EPOCH":1324,"BSTAR":0.000071028051,"MEAN_MOTION_DOT":5.8e-7,"MEAN_MOTION_DDOT":0},{"OBJECT_NAME":"QIANFAN-121","OBJECT_ID":"2026-075N","EPOCH":"2026-07-12T12:49:13.078560","CLASSIFICATION_TYPE":"U","MEAN_MOTION":13.51012744,"ECCENTRICITY":0.00020353,"INCLINATION":88.9914,"RA_OF_ASC_NODE":318.4032,"ARG_OF_PERICENTER":101.4218,"MEAN_ANOMALY":258.7162,"EPHEMERIS_TYPE":0,"NORAD_CAT_ID":68648,"ELEMENT_SET_NO":999,"REV_AT_EPOCH":1323,"BSTAR":0.000072808791,"MEAN_MOTION_DOT":5.9e-7,"MEAN_MOTION_DDOT":0},{"OBJECT_NAME":"QIANFAN-122","OBJECT_ID":"2026-075P","EPOCH":"2026-07-12T12:37:33.083904","CLASSIFICATION_TYPE":"U","MEAN_MOTION":13.51016433,"ECCENTRICITY":0.0002088,"INCLINATION":88.9913,"RA_OF_ASC_NODE":318.4019,"ARG_OF_PERICENTER":112.652,"MEAN_ANOMALY":247.4853,"EPHEMERIS_TYPE":0,"NORAD_CAT_ID":68649,"ELEMENT_SET_NO":999,"REV_AT_EPOCH":1322,"BSTAR":0.000085067441,"MEAN_MOTION_DOT":6.7e-7,"MEAN_MOTION_DDOT":0},{"OBJECT_NAME":"QIANFAN-123","OBJECT_ID":"2026-075Q","EPOCH":"2026-07-12T13:36:51.333984","CLASSIFICATION_TYPE":"U","MEAN_MOTION":13.51014851,"ECCENTRICITY":0.00021635,"INCLINATION":88.991,"RA_OF_ASC_NODE":318.387,"ARG_OF_PERICENTER":118.0963,"MEAN_ANOMALY":242.0407,"EPHEMERIS_TYPE":0,"NORAD_CAT_ID":68650,"ELEMENT_SET_NO":999,"REV_AT_EPOCH":1321,"BSTAR":0.000086912749,"MEAN_MOTION_DOT":6.8e-7,"MEAN_MOTION_DDOT":0},{"OBJECT_NAME":"QIANFAN-124","OBJECT_ID":"2026-075R","EPOCH":"2026-07-12T12:25:42.506976","CLASSIFICATION_TYPE":"U","MEAN_MOTION":13.51016003,"ECCENTRICITY":0.00020867,"INCLINATION":88.9912,"RA_OF_ASC_NODE":318.4016,"ARG_OF_PERICENTER":114.6768,"MEAN_ANOMALY":245.46,"EPHEMERIS_TYPE":0,"NORAD_CAT_ID":68651,"ELEMENT_SET_NO":999,"REV_AT_EPOCH":1323,"BSTAR":0.000084820136,"MEAN_MOTION_DOT":6.7e-7,"MEAN_MOTION_DDOT":0},{"OBJECT_NAME":"QIANFAN-125","OBJECT_ID":"2026-075S","EPOCH":"2026-07-12T12:43:18.215616","CLASSIFICATION_TYPE":"U","MEAN_MOTION":13.51012965,"ECCENTRICITY":0.00020038,"INCLINATION":88.9912,"RA_OF_ASC_NODE":318.4024,"ARG_OF_PERICENTER":101.5842,"MEAN_ANOMALY":258.5534,"EPHEMERIS_TYPE":0,"NORAD_CAT_ID":68652,"ELEMENT_SET_NO":999,"REV_AT_EPOCH":1323,"BSTAR":0.000085211343,"MEAN_MOTION_DOT":6.7e-7,"MEAN_MOTION_DDOT":0},{"OBJECT_NAME":"QIANFAN-126","OBJECT_ID":"2026-075T","EPOCH":"2026-07-12T12:55:16.719744","CLASSIFICATION_TYPE":"U","MEAN_MOTION":13.51018089,"ECCENTRICITY":0.00021824,"INCLINATION":88.9916,"RA_OF_ASC_NODE":318.3682,"ARG_OF_PERICENTER":117.9505,"MEAN_ANOMALY":242.1867,"EPHEMERIS_TYPE":0,"NORAD_CAT_ID":68653,"ELEMENT_SET_NO":999,"REV_AT_EPOCH":1325,"BSTAR":0.000069868352,"MEAN_MOTION_DOT":5.7e-7,"MEAN_MOTION_DDOT":0},{"OBJECT_NAME":"QIANFAN-127","OBJECT_ID":"2026-104A","EPOCH":"2026-07-10T23:13:58.376064","CLASSIFICATION_TYPE":"U","MEAN_MOTION":13.57746368,"ECCENTRICITY":0.00092423,"INCLINATION":88.9902,"RA_OF_ASC_NODE":339.0479,"ARG_OF_PERICENTER":5.8731,"MEAN_ANOMALY":354.2531,"EPHEMERIS_TYPE":0,"NORAD_CAT_ID":69073,"ELEMENT_SET_NO":999,"REV_AT_EPOCH":836,"BSTAR":-2.9698925,"MEAN_MOTION_DOT":-0.02001435,"MEAN_MOTION_DDOT":0},{"OBJECT_NAME":"QIANFAN-128","OBJECT_ID":"2026-104B","EPOCH":"2026-07-12T15:29:12.287040","CLASSIFICATION_TYPE":"U","MEAN_MOTION":13.57830167,"ECCENTRICITY":0.0009654,"INCLINATION":88.9891,"RA_OF_ASC_NODE":338.9061,"ARG_OF_PERICENTER":17.9288,"MEAN_ANOMALY":342.2205,"EPHEMERIS_TYPE":0,"NORAD_CAT_ID":69074,"ELEMENT_SET_NO":999,"REV_AT_EPOCH":857,"BSTAR":0.000011796,"MEAN_MOTION_DOT":2.1e-7,"MEAN_MOTION_DDOT":0}]}
