QIANFAN-113             
1 68640U 26075E   26193.77291514  .00000055  00000+0  66927-4 0  9994
2 68640  88.9917 318.3840 0001943 105.8602 254.2764 13.51018118 13265
QIANFAN-114             
1 68641U 26075F   26193.78110602  .00000073  00000+0  94717-4 0  9992
2 68641  88.9912 318.4011 0002034 103.2090 256.9288 13.51016900 13253
QIANFAN-115             
1 68642U 26075G   26193.51357095  .00000050  00000+0  58480-4 0  9995
2 68642  88.9912 318.4356 0002152 107.1052 253.0335 13.51022100 13214
QIANFAN-116             
1 68643U 26075H   26193.79748267  .00000058  00000+0  70835-4 0  9997
2 68643  88.9905 318.3648 0001892 112.9464 247.1887 13.51014211 13266
QIANFAN-117             
1 68644U 26075J   26193.78514707  .00000077  00000+0  99846-4 0  9991
2 68644  88.9910 318.3830 0002076 110.4372 249.7002 13.51024151 13263
QIANFAN-118             
1 68645U 26075K   26191.96291600 -.02165439  00000+0 -35021+1 0  9993
2 68645  88.9921 318.5955 0050117   0.0535   0.0611 13.48686368 13017
QIANFAN-119             
1 68646U 26075L   26193.57123984  .00000062  00000+0  77322-4 0  9992
2 68646  88.9915 318.4096 0002169 112.6724 247.4657 13.51020266 13234
QIANFAN-120             
1 68647U 26075M   26193.58369700  .00000058  00000+0  71028-4 0  9994
2 68647  88.9916 318.3938 0002318 113.4224 246.7171 13.51020677 13240
QIANFAN-121             
1 68648U 26075N   26193.53417915  .00000059  00000+0  72809-4 0  9991
2 68648  88.9914 318.4032 0002035 101.4218 258.7162 13.51012744 13239
QIANFAN-122             
1 68649U 26075P   26193.52607736  .00000067  00000+0  85067-4 0  9992
2 68649  88.9913 318.4019 0002088 112.6520 247.4853 13.51016433 13222
QIANFAN-123             
1 68650U 26075Q   26193.56726081  .00000068  00000+0  86913-4 0  9995
2 68650  88.9910 318.3870 0002163 118.0963 242.0407 13.51014851 13217
QIANFAN-124             
1 68651U 26075R   26193.51785309  .00000067  00000+0  84820-4 0  9993
2 68651  88.9912 318.4016 0002086 114.6768 245.4600 13.51016003 13237
QIANFAN-125             
1 68652U 26075S   26193.53007194  .00000067  00000+0  85211-4 0  9990
2 68652  88.9912 318.4024 0002003 101.5842 258.5534 13.51012965 13238
QIANFAN-126             
1 68653U 26075T   26193.53838796  .00000057  00000+0  69868-4 0  9990
2 68653  88.9916 318.3682 0002182 117.9505 242.1867 13.51018089 13250
QIANFAN-127             
1 69073U 26104A   26191.96803676 -.02001435  00000+0 -29699+1 0  9993
2 69073  88.9902 339.0479 0009242   5.8731 354.2531 13.57746368  8369
QIANFAN-128             
1 69074U 26104B   26193.64528110  .00000021  00000+0  11796-4 0  9997
2 69074  88.9891 338.9061 0009654  17.9288 342.2205 13.57830167  8579
